ONEWEB-0291             
1 49081U 21075G   25349.16994287  .00000040  00000+0  69463-4 0  9991
2 49081  87.9123  42.4402 0001407 106.5359 253.5928 13.17648264209378
ONEWEB-0293             
1 49082U 21075H   25349.19525413  .00000043  00000+0  77712-4 0  9995
2 49082  87.9108  42.4553 0001639  96.8810 263.2508 13.17647124209409
ONEWEB-0294             
1 49083U 21075J   25349.36952716 -.00000432  00000+0 -12394-2 0  9992
2 49083  87.8940  27.1695 0001411  86.1760 273.9530 13.12306308210466
ONEWEB-0295             
1 49084U 21075K   25349.19441013  .00000013  00000+0 -10446-6 0  9991
2 49084  87.9109  42.4600 0001510 108.6875 251.4421 13.17648522209367
ONEWEB-0296             
1 49085U 21075L   25349.34974699  .00000049  00000+0  10064-3 0  9991
2 49085  87.8937  27.1775 0001303 102.9070 257.2204 13.12420285210468
ONEWEB-0297             
1 49086U 21075M   25349.15175980 -.00000232  00000+0 -68064-3 0  9996
2 49086  87.8930  27.2485 0001705 100.0499 260.0822 13.12462338211049
ONEWEB-0298             
1 49087U 21075N   25349.19876778  .00000033  00000+0  50688-4 0  9995
2 49087  87.9108  42.4560 0001841  99.6698 260.4641 13.17647417209392
ONEWEB-0299             
1 49088U 21075P   25349.20031634  .00000095  00000+0  21068-3 0  9999
2 49088  87.9119  42.4176 0001705 105.3727 254.7593 13.17647879209377
